[{"OBJECT_NAME":"ONEWEB-0120","OBJECT_ID":"2020-100J","EPOCH":"2026-05-31T01:48:53.595648","MEAN_MOTION":13.12444444,"ECCENTRICITY":0.000169,"INCLINATION":87.8941,"RA_OF_ASC_NODE":354.0754,"ARG_OF_PERICENTER":92.3923,"MEAN_ANOMALY":267.7399,"EPHEMERIS_TYPE":0,"CLASSIFICATION_TYPE":"U","NORAD_CAT_ID":47266,"ELEMENT_SET_NO":999,"REV_AT_EPOCH":26248,"BSTAR":0.00077284,"MEAN_MOTION_DOT":2.91e-06,"MEAN_MOTION_DDOT":0.0},{"OBJECT_NAME":"ONEWEB-0121","OBJECT_ID":"2020-100K","EPOCH":"2026-05-31T01:31:36.120000","MEAN_MOTION":13.12443797,"ECCENTRICITY":0.0001954,"INCLINATION":87.8954,"RA_OF_ASC_NODE":354.062,"ARG_OF_PERICENTER":79.4519,"MEAN_ANOMALY":280.6829,"EPHEMERIS_TYPE":0,"CLASSIFICATION_TYPE":"U","NORAD_CAT_ID":47267,"ELEMENT_SET_NO":999,"REV_AT_EPOCH":26239,"BSTAR":-0.00056209,"MEAN_MOTION_DOT":-1.89e-06,"MEAN_MOTION_DDOT":0.0},{"OBJECT_NAME":"ONEWEB-0122","OBJECT_ID":"2020-100L","EPOCH":"2026-05-31T01:23:03.911424","MEAN_MOTION":13.12442728,"ECCENTRICITY":0.0001612,"INCLINATION":87.8955,"RA_OF_ASC_NODE":354.0672,"ARG_OF_PERICENTER":89.0454,"MEAN_ANOMALY":271.0859,"EPHEMERIS_TYPE":0,"CLASSIFICATION_TYPE":"U","NORAD_CAT_ID":47268,"ELEMENT_SET_NO":999,"REV_AT_EPOCH":26230,"BSTAR":-0.00093959,"MEAN_MOTION_DOT":-3.25e-06,"MEAN_MOTION_DDOT":0.0},{"OBJECT_NAME":"ONEWEB-0123","OBJECT_ID":"2020-100M","EPOCH":"2026-05-31T03:06:45.001728","MEAN_MOTION":13.12443465,"ECCENTRICITY":0.0001872,"INCLINATION":87.8945,"RA_OF_ASC_NODE":354.0623,"ARG_OF_PERICENTER":90.1791,"MEAN_ANOMALY":269.9552,"EPHEMERIS_TYPE":0,"CLASSIFICATION_TYPE":"U","NORAD_CAT_ID":47269,"ELEMENT_SET_NO":999,"REV_AT_EPOCH":26245,"BSTAR":-0.0009526000000000001,"MEAN_MOTION_DOT":-3.3e-06,"MEAN_MOTION_DDOT":0.0},{"OBJECT_NAME":"ONEWEB-0124","OBJECT_ID":"2020-100N","EPOCH":"2026-05-30T23:12:33.061248","MEAN_MOTION":13.12442527,"ECCENTRICITY":0.0001843,"INCLINATION":87.8942,"RA_OF_ASC_NODE":354.0979,"ARG_OF_PERICENTER":85.1994,"MEAN_ANOMALY":274.9344,"EPHEMERIS_TYPE":0,"CLASSIFICATION_TYPE":"U","NORAD_CAT_ID":47270,"ELEMENT_SET_NO":999,"REV_AT_EPOCH":26231,"BSTAR":-0.00075407,"MEAN_MOTION_DOT":-2.59e-06,"MEAN_MOTION_DDOT":0.0},{"OBJECT_NAME":"ONEWEB-0125","OBJECT_ID":"2020-100P","EPOCH":"2026-05-31T02:20:24.579744","MEAN_MOTION":13.12443159,"ECCENTRICITY":0.0002094,"INCLINATION":87.8956,"RA_OF_ASC_NODE":354.0535,"ARG_OF_PERICENTER":85.4475,"MEAN_ANOMALY":274.6893,"EPHEMERIS_TYPE":0,"CLASSIFICATION_TYPE":"U","NORAD_CAT_ID":47271,"ELEMENT_SET_NO":999,"REV_AT_EPOCH":26239,"BSTAR":0.0011685,"MEAN_MOTION_DOT":4.33e-06,"MEAN_MOTION_DDOT":0.0},{"OBJECT_NAME":"ONEWEB-0126","OBJECT_ID":"2020-100Q","EPOCH":"2026-05-30T23:10:18.268608","MEAN_MOTION":13.12441752,"ECCENTRICITY":0.0001755,"INCLINATION":87.8949,"RA_OF_ASC_NODE":354.0969,"ARG_OF_PERICENTER":91.112,"MEAN_ANOMALY":269.0209,"EPHEMERIS_TYPE":0,"CLASSIFICATION_TYPE":"U","NORAD_CAT_ID":47272,"ELEMENT_SET_NO":999,"REV_AT_EPOCH":26244,"BSTAR":-0.0006271,"MEAN_MOTION_DOT":-2.13e-06,"MEAN_MOTION_DDOT":0.0},{"OBJECT_NAME":"ONEWEB-0127","OBJECT_ID":"2020-100R","EPOCH":"2026-05-31T02:00:53.141760","MEAN_MOTION":13.12443258,"ECCENTRICITY":0.0001675,"INCLINATION":87.8943,"RA_OF_ASC_NODE":354.0729,"ARG_OF_PERICENTER":90.3772,"MEAN_ANOMALY":269.7548,"EPHEMERIS_TYPE":0,"CLASSIFICATION_TYPE":"U","NORAD_CAT_ID":47273,"ELEMENT_SET_NO":999,"REV_AT_EPOCH":26248,"BSTAR":0.0012941,"MEAN_MOTION_DOT":4.78e-06,"MEAN_MOTION_DDOT":0.0},{"OBJECT_NAME":"ONEWEB-0128","OBJECT_ID":"2020-100S","EPOCH":"2026-05-31T00:42:48.159648","MEAN_MOTION":13.12440766,"ECCENTRICITY":0.0001641,"INCLINATION":87.8942,"RA_OF_ASC_NODE":354.0972,"ARG_OF_PERICENTER":79.806,"MEAN_ANOMALY":280.3254,"EPHEMERIS_TYPE":0,"CLASSIFICATION_TYPE":"U","NORAD_CAT_ID":47274,"ELEMENT_SET_NO":999,"REV_AT_EPOCH":26249,"BSTAR":0.00042223,"MEAN_MOTION_DOT":1.65e-06,"MEAN_MOTION_DDOT":0.0},{"OBJECT_NAME":"ONEWEB-0129","OBJECT_ID":"2020-100T","EPOCH":"2026-05-31T02:03:19.131840","MEAN_MOTION":13.12442533,"ECCENTRICITY":0.0001558,"INCLINATION":87.8952,"RA_OF_ASC_NODE":354.0581,"ARG_OF_PERICENTER":126.6266,"MEAN_ANOMALY":233.5006,"EPHEMERIS_TYPE":0,"CLASSIFICATION_TYPE":"U","NORAD_CAT_ID":47275,"ELEMENT_SET_NO":999,"REV_AT_EPOCH":26243,"BSTAR":0.0011775,"MEAN_MOTION_DOT":4.36e-06,"MEAN_MOTION_DDOT":0.0},{"OBJECT_NAME":"ONEWEB-0130","OBJECT_ID":"2020-100U","EPOCH":"2026-05-31T00:52:34.470912","MEAN_MOTION":13.12441239,"ECCENTRICITY":0.0001685,"INCLINATION":87.8955,"RA_OF_ASC_NODE":354.0632,"ARG_OF_PERICENTER":89.9907,"MEAN_ANOMALY":270.1415,"EPHEMERIS_TYPE":0,"CLASSIFICATION_TYPE":"U","NORAD_CAT_ID":47276,"ELEMENT_SET_NO":999,"REV_AT_EPOCH":26239,"BSTAR":-0.00028827999999999997,"MEAN_MOTION_DOT":-9.1e-07,"MEAN_MOTION_DDOT":0.0},{"OBJECT_NAME":"ONEWEB-0131","OBJECT_ID":"2020-100V","EPOCH":"2026-05-31T00:47:41.428032","MEAN_MOTION":13.12441389,"ECCENTRICITY":0.0001761,"INCLINATION":87.8942,"RA_OF_ASC_NODE":354.0838,"ARG_OF_PERICENTER":88.0281,"MEAN_ANOMALY":272.1049,"EPHEMERIS_TYPE":0,"CLASSIFICATION_TYPE":"U","NORAD_CAT_ID":47277,"ELEMENT_SET_NO":999,"REV_AT_EPOCH":26243,"BSTAR":2.2173000000000003e-05,"MEAN_MOTION_DOT":2.1e-07,"MEAN_MOTION_DDOT":0.0},{"OBJECT_NAME":"ONEWEB-0132","OBJECT_ID":"2020-100W","EPOCH":"2026-05-31T01:29:10.205088","MEAN_MOTION":13.12443743,"ECCENTRICITY":0.0001751,"INCLINATION":87.8944,"RA_OF_ASC_NODE":354.0793,"ARG_OF_PERICENTER":85.9741,"MEAN_ANOMALY":274.1588,"EPHEMERIS_TYPE":0,"CLASSIFICATION_TYPE":"U","NORAD_CAT_ID":47278,"ELEMENT_SET_NO":999,"REV_AT_EPOCH":26233,"BSTAR":-0.0007179100000000001,"MEAN_MOTION_DOT":-2.46e-06,"MEAN_MOTION_DDOT":0.0},{"OBJECT_NAME":"ONEWEB-0133","OBJECT_ID":"2020-100X","EPOCH":"2026-05-31T01:53:22.260768","MEAN_MOTION":13.12444481,"ECCENTRICITY":0.0001712,"INCLINATION":87.8956,"RA_OF_ASC_NODE":354.05,"ARG_OF_PERICENTER":83.1743,"MEAN_ANOMALY":276.958,"EPHEMERIS_TYPE":0,"CLASSIFICATION_TYPE":"U","NORAD_CAT_ID":47279,"ELEMENT_SET_NO":999,"REV_AT_EPOCH":26249,"BSTAR":0.00082146,"MEAN_MOTION_DOT":3.08e-06,"MEAN_MOTION_DDOT":0.0},{"OBJECT_NAME":"ONEWEB-0134","OBJECT_ID":"2020-100Y","EPOCH":"2026-05-31T02:59:25.409760","MEAN_MOTION":13.12443409,"ECCENTRICITY":0.0001504,"INCLINATION":87.8957,"RA_OF_ASC_NODE":354.0381,"ARG_OF_PERICENTER":88.5425,"MEAN_ANOMALY":271.5876,"EPHEMERIS_TYPE":0,"CLASSIFICATION_TYPE":"U","NORAD_CAT_ID":47280,"ELEMENT_SET_NO":999,"REV_AT_EPOCH":26247,"BSTAR":-0.00088573,"MEAN_MOTION_DOT":-3.06e-06,"MEAN_MOTION_DDOT":0.0},{"OBJECT_NAME":"ONEWEB-0135","OBJECT_ID":"2020-100Z","EPOCH":"2026-05-31T02:17:58.017696","MEAN_MOTION":13.12442372,"ECCENTRICITY":0.0001503,"INCLINATION":87.8944,"RA_OF_ASC_NODE":354.0689,"ARG_OF_PERICENTER":84.1,"MEAN_ANOMALY":276.03,"EPHEMERIS_TYPE":0,"CLASSIFICATION_TYPE":"U","NORAD_CAT_ID":47281,"ELEMENT_SET_NO":999,"REV_AT_EPOCH":26249,"BSTAR":0.0011641,"MEAN_MOTION_DOT":4.32e-06,"MEAN_MOTION_DDOT":0.0}]