ONEWEB-0120             
1 47266U 20100J   26151.07562032  .00000291  00000+0  77284-3 0  9990
2 47266  87.8941 354.0754 0001690  92.3923 267.7399 13.12444444262482
ONEWEB-0121             
1 47267U 20100K   26151.06361250 -.00000189  00000+0 -56209-3 0  9991
2 47267  87.8954 354.0620 0001954  79.4519 280.6829 13.12443797262391
ONEWEB-0122             
1 47268U 20100L   26151.05768416 -.00000325  00000+0 -93959-3 0  9991
2 47268  87.8955 354.0672 0001612  89.0454 271.0859 13.12442728262307
ONEWEB-0123             
1 47269U 20100M   26151.12968752 -.00000330  00000+0 -95260-3 0  9998
2 47269  87.8945 354.0623 0001872  90.1791 269.9552 13.12443465262459
ONEWEB-0124             
1 47270U 20100N   26150.96704932 -.00000259  00000+0 -75407-3 0  9990
2 47270  87.8942 354.0979 0001843  85.1994 274.9344 13.12442527262317
ONEWEB-0125             
1 47271U 20100P   26151.09750671  .00000433  00000+0  11685-2 0  9996
2 47271  87.8956 354.0535 0002094  85.4475 274.6893 13.12443159262393
ONEWEB-0126             
1 47272U 20100Q   26150.96548922 -.00000213  00000+0 -62710-3 0  9990
2 47272  87.8949 354.0969 0001755  91.1120 269.0209 13.12441752262443
ONEWEB-0127             
1 47273U 20100R   26151.08394840  .00000478  00000+0  12941-2 0  9994
2 47273  87.8943 354.0729 0001675  90.3772 269.7548 13.12443258262487
ONEWEB-0128             
1 47274U 20100S   26151.02972407  .00000165  00000+0  42223-3 0  9990
2 47274  87.8942 354.0972 0001641  79.8060 280.3254 13.12440766262497
ONEWEB-0129             
1 47275U 20100T   26151.08563810  .00000436  00000+0  11775-2 0  9999
2 47275  87.8952 354.0581 0001558 126.6266 233.5006 13.12442533262434
ONEWEB-0130             
1 47276U 20100U   26151.03651008 -.00000091  00000+0 -28828-3 0  9999
2 47276  87.8955 354.0632 0001685  89.9907 270.1415 13.12441239262397
ONEWEB-0131             
1 47277U 20100V   26151.03311838  .00000021  00000+0  22173-4 0  9993
2 47277  87.8942 354.0838 0001761  88.0281 272.1049 13.12441389262438
ONEWEB-0132             
1 47278U 20100W   26151.06192367 -.00000246  00000+0 -71791-3 0  9991
2 47278  87.8944 354.0793 0001751  85.9741 274.1588 13.12443743262332
ONEWEB-0133             
1 47279U 20100X   26151.07872987  .00000308  00000+0  82146-3 0  9999
2 47279  87.8956 354.0500 0001712  83.1743 276.9580 13.12444481262490
ONEWEB-0134             
1 47280U 20100Y   26151.12459965 -.00000306  00000+0 -88573-3 0  9994
2 47280  87.8957 354.0381 0001504  88.5425 271.5876 13.12443409262471
ONEWEB-0135             
1 47281U 20100Z   26151.09581039  .00000432  00000+0  11641-2 0  9998
2 47281  87.8944 354.0689 0001503  84.1000 276.0300 13.12442372262491
